[{"OBJECT_NAME":"ONEWEB-0321","OBJECT_ID":"2021-083F","EPOCH":"2026-03-08T03:23:33.124704","MEAN_MOTION":13.20772947,"ECCENTRICITY":0.000183,"INCLINATION":87.9174,"RA_OF_ASC_NODE":294.6114,"ARG_OF_PERICENTER":91.6267,"MEAN_ANOMALY":268.5076,"EPHEMERIS_TYPE":0,"CLASSIFICATION_TYPE":"U","NORAD_CAT_ID":49191,"ELEMENT_SET_NO":999,"REV_AT_EPOCH":22349,"BSTAR":-0.00012236,"MEAN_MOTION_DOT":-3.7e-7,"MEAN_MOTION_DDOT":0},{"OBJECT_NAME":"ONEWEB-0322","OBJECT_ID":"2021-083G","EPOCH":"2026-03-08T03:27:13.872384","MEAN_MOTION":13.13469303,"ECCENTRICITY":0.0001784,"INCLINATION":87.9027,"RA_OF_ASC_NODE":340.3426,"ARG_OF_PERICENTER":96.4984,"MEAN_ANOMALY":263.6349,"EPHEMERIS_TYPE":0,"CLASSIFICATION_TYPE":"U","NORAD_CAT_ID":49192,"ELEMENT_SET_NO":999,"REV_AT_EPOCH":21765,"BSTAR":0.00040707,"MEAN_MOTION_DOT":1.61e-6,"MEAN_MOTION_DDOT":0},{"OBJECT_NAME":"ONEWEB-0324","OBJECT_ID":"2021-083H","EPOCH":"2026-03-08T01:38:20.814144","MEAN_MOTION":13.18686131,"ECCENTRICITY":0.0001943,"INCLINATION":87.9252,"RA_OF_ASC_NODE":355.5297,"ARG_OF_PERICENTER":76.291,"MEAN_ANOMALY":283.8438,"EPHEMERIS_TYPE":0,"CLASSIFICATION_TYPE":"U","NORAD_CAT_ID":49193,"ELEMENT_SET_NO":999,"REV_AT_EPOCH":21667,"BSTAR":0.00013274,"MEAN_MOTION_DOT":6.5e-7,"MEAN_MOTION_DDOT":0},{"OBJECT_NAME":"ONEWEB-0325","OBJECT_ID":"2021-083J","EPOCH":"2026-03-07T18:26:03.433920","MEAN_MOTION":13.1868558,"ECCENTRICITY":0.00016902,"INCLINATION":87.9243,"RA_OF_ASC_NODE":355.6063,"ARG_OF_PERICENTER":80.0934,"MEAN_ANOMALY":280.0389,"EPHEMERIS_TYPE":0,"CLASSIFICATION_TYPE":"U","NORAD_CAT_ID":49194,"ELEMENT_SET_NO":999,"REV_AT_EPOCH":21664,"BSTAR":-2.4171755e-5,"MEAN_MOTION_DOT":3.0e-8,"MEAN_MOTION_DDOT":0},{"OBJECT_NAME":"ONEWEB-0326","OBJECT_ID":"2021-083K","EPOCH":"2026-03-07T18:47:36.838464","MEAN_MOTION":13.18687215,"ECCENTRICITY":0.00015773,"INCLINATION":87.9253,"RA_OF_ASC_NODE":355.5926,"ARG_OF_PERICENTER":70.2993,"MEAN_ANOMALY":289.8309,"EPHEMERIS_TYPE":0,"CLASSIFICATION_TYPE":"U","NORAD_CAT_ID":49195,"ELEMENT_SET_NO":999,"REV_AT_EPOCH":21663,"BSTAR":-7.624476e-6,"MEAN_MOTION_DOT":1.0e-7,"MEAN_MOTION_DDOT":0},{"OBJECT_NAME":"ONEWEB-0327","OBJECT_ID":"2021-083L","EPOCH":"2026-03-07T18:47:11.772960","MEAN_MOTION":13.18683566,"ECCENTRICITY":0.00014304,"INCLINATION":87.9242,"RA_OF_ASC_NODE":355.6053,"ARG_OF_PERICENTER":70.0842,"MEAN_ANOMALY":290.0444,"EPHEMERIS_TYPE":0,"CLASSIFICATION_TYPE":"U","NORAD_CAT_ID":49196,"ELEMENT_SET_NO":999,"REV_AT_EPOCH":21665,"BSTAR":-9.780541e-5,"MEAN_MOTION_DOT":-2.6e-7,"MEAN_MOTION_DDOT":0},{"OBJECT_NAME":"ONEWEB-0328","OBJECT_ID":"2021-083M","EPOCH":"2026-03-08T03:12:36.521856","MEAN_MOTION":13.13469572,"ECCENTRICITY":0.0001884,"INCLINATION":87.9046,"RA_OF_ASC_NODE":340.3041,"ARG_OF_PERICENTER":75.8232,"MEAN_ANOMALY":284.3106,"EPHEMERIS_TYPE":0,"CLASSIFICATION_TYPE":"U","NORAD_CAT_ID":49197,"ELEMENT_SET_NO":999,"REV_AT_EPOCH":21763,"BSTAR":0.0010286,"MEAN_MOTION_DOT":3.88e-6,"MEAN_MOTION_DDOT":0},{"OBJECT_NAME":"ONEWEB-0331","OBJECT_ID":"2021-083N","EPOCH":"2026-03-08T03:44:14.518176","MEAN_MOTION":13.18685988,"ECCENTRICITY":0.0001729,"INCLINATION":87.9255,"RA_OF_ASC_NODE":355.5118,"ARG_OF_PERICENTER":67.0786,"MEAN_ANOMALY":293.0528,"EPHEMERIS_TYPE":0,"CLASSIFICATION_TYPE":"U","NORAD_CAT_ID":49198,"ELEMENT_SET_NO":999,"REV_AT_EPOCH":21669,"BSTAR":-1.8086e-5,"MEAN_MOTION_DOT":6.0e-8,"MEAN_MOTION_DDOT":0},{"OBJECT_NAME":"ONEWEB-0333","OBJECT_ID":"2021-083P","EPOCH":"2026-03-08T03:05:17.619360","MEAN_MOTION":13.13470205,"ECCENTRICITY":0.0001671,"INCLINATION":87.9028,"RA_OF_ASC_NODE":340.3438,"ARG_OF_PERICENTER":77.6733,"MEAN_ANOMALY":282.4583,"EPHEMERIS_TYPE":0,"CLASSIFICATION_TYPE":"U","NORAD_CAT_ID":49199,"ELEMENT_SET_NO":999,"REV_AT_EPOCH":21764,"BSTAR":0.0011561,"MEAN_MOTION_DOT":4.35e-6,"MEAN_MOTION_DDOT":0},{"OBJECT_NAME":"ONEWEB-0334","OBJECT_ID":"2021-083Q","EPOCH":"2026-03-08T01:59:28.907808","MEAN_MOTION":13.20772276,"ECCENTRICITY":0.0002053,"INCLINATION":87.9159,"RA_OF_ASC_NODE":294.6419,"ARG_OF_PERICENTER":115.7589,"MEAN_ANOMALY":244.3756,"EPHEMERIS_TYPE":0,"CLASSIFICATION_TYPE":"U","NORAD_CAT_ID":49200,"ELEMENT_SET_NO":999,"REV_AT_EPOCH":22344,"BSTAR":8.0677e-5,"MEAN_MOTION_DOT":4.6e-7,"MEAN_MOTION_DDOT":0},{"OBJECT_NAME":"ONEWEB-0335","OBJECT_ID":"2021-083R","EPOCH":"2026-03-08T02:57:58.691808","MEAN_MOTION":13.13469509,"ECCENTRICITY":0.0001661,"INCLINATION":87.9035,"RA_OF_ASC_NODE":340.3384,"ARG_OF_PERICENTER":71.5656,"MEAN_ANOMALY":288.5654,"EPHEMERIS_TYPE":0,"CLASSIFICATION_TYPE":"U","NORAD_CAT_ID":49201,"ELEMENT_SET_NO":999,"REV_AT_EPOCH":21765,"BSTAR":0.0010167,"MEAN_MOTION_DOT":3.84e-6,"MEAN_MOTION_DDOT":0},{"OBJECT_NAME":"ONEWEB-0336","OBJECT_ID":"2021-083S","EPOCH":"2026-03-07T18:57:44.798976","MEAN_MOTION":13.13469531,"ECCENTRICITY":0.00017928,"INCLINATION":87.9032,"RA_OF_ASC_NODE":340.4009,"ARG_OF_PERICENTER":64.0924,"MEAN_ANOMALY":296.039,"EPHEMERIS_TYPE":0,"CLASSIFICATION_TYPE":"U","NORAD_CAT_ID":49202,"ELEMENT_SET_NO":999,"REV_AT_EPOCH":21760,"BSTAR":-0.00062142288,"MEAN_MOTION_DOT":-2.14e-6,"MEAN_MOTION_DDOT":0},{"OBJECT_NAME":"ONEWEB-0337","OBJECT_ID":"2021-083T","EPOCH":"2026-03-07T19:12:11.541312","MEAN_MOTION":13.13469493,"ECCENTRICITY":0.00018162,"INCLINATION":87.903,"RA_OF_ASC_NODE":340.4082,"ARG_OF_PERICENTER":74.5282,"MEAN_ANOMALY":285.6048,"EPHEMERIS_TYPE":0,"CLASSIFICATION_TYPE":"U","NORAD_CAT_ID":49203,"ELEMENT_SET_NO":999,"REV_AT_EPOCH":21760,"BSTAR":-0.00016560943,"MEAN_MOTION_DOT":-4.8e-7,"MEAN_MOTION_DDOT":0},{"OBJECT_NAME":"ONEWEB-0338","OBJECT_ID":"2021-083U","EPOCH":"2026-03-08T03:12:12.165696","MEAN_MOTION":13.20769847,"ECCENTRICITY":0.0001744,"INCLINATION":87.9165,"RA_OF_ASC_NODE":294.6356,"ARG_OF_PERICENTER":95.1152,"MEAN_ANOMALY":265.0181,"EPHEMERIS_TYPE":0,"CLASSIFICATION_TYPE":"U","NORAD_CAT_ID":49204,"ELEMENT_SET_NO":999,"REV_AT_EPOCH":22347,"BSTAR":0.00026351,"MEAN_MOTION_DOT":1.2e-6,"MEAN_MOTION_DDOT":0},{"OBJECT_NAME":"ONEWEB-0339","OBJECT_ID":"2021-083V","EPOCH":"2026-03-08T02:43:21.452736","MEAN_MOTION":13.13470492,"ECCENTRICITY":0.0001862,"INCLINATION":87.9038,"RA_OF_ASC_NODE":340.3341,"ARG_OF_PERICENTER":85.7148,"MEAN_ANOMALY":274.4194,"EPHEMERIS_TYPE":0,"CLASSIFICATION_TYPE":"U","NORAD_CAT_ID":49205,"ELEMENT_SET_NO":999,"REV_AT_EPOCH":21762,"BSTAR":0.00042212,"MEAN_MOTION_DOT":1.67e-6,"MEAN_MOTION_DDOT":0},{"OBJECT_NAME":"ONEWEB-0340","OBJECT_ID":"2021-083W","EPOCH":"2026-03-08T01:35:58.248096","MEAN_MOTION":13.18685917,"ECCENTRICITY":0.0001743,"INCLINATION":87.9254,"RA_OF_ASC_NODE":355.5351,"ARG_OF_PERICENTER":75.8429,"MEAN_ANOMALY":284.2897,"EPHEMERIS_TYPE":0,"CLASSIFICATION_TYPE":"U","NORAD_CAT_ID":49206,"ELEMENT_SET_NO":999,"REV_AT_EPOCH":21664,"BSTAR":0.00010593,"MEAN_MOTION_DOT":5.5e-7,"MEAN_MOTION_DDOT":0},{"OBJECT_NAME":"ONEWEB-0341","OBJECT_ID":"2021-083X","EPOCH":"2026-03-07T18:28:25.628448","MEAN_MOTION":13.18686242,"ECCENTRICITY":0.00022772,"INCLINATION":87.9246,"RA_OF_ASC_NODE":355.6041,"ARG_OF_PERICENTER":73.8465,"MEAN_ANOMALY":286.2917,"EPHEMERIS_TYPE":0,"CLASSIFICATION_TYPE":"U","NORAD_CAT_ID":49207,"ELEMENT_SET_NO":999,"REV_AT_EPOCH":21662,"BSTAR":0.00014163443,"MEAN_MOTION_DOT":6.9e-7,"MEAN_MOTION_DDOT":0}]
