ONEWEB-0321             
1 49191U 21083F   26067.14135561 -.00000037  00000+0 -12236-3 0  9993
2 49191  87.9174 294.6114 0001830  91.6267 268.5076 13.20772947223498
ONEWEB-0322             
1 49192U 21083G   26067.14391056  .00000161  00000+0  40707-3 0  9997
2 49192  87.9027 340.3426 0001784  96.4984 263.6349 13.13469303217659
ONEWEB-0324             
1 49193U 21083H   26067.06829646  .00000065  00000+0  13274-3 0  9992
2 49193  87.9252 355.5297 0001943  76.2910 283.8438 13.18686131216675
ONEWEB-0325             
1 49194U 21083J   26066.76809530  .00000003  00000+0 -24172-4 0  9992
2 49194  87.9243 355.6063 0001690  80.0934 280.0389 13.18685580216644
ONEWEB-0326             
1 49195U 21083K   26066.78306526  .00000010  00000+0 -76245-5 0  9999
2 49195  87.9253 355.5926 0001577  70.2993 289.8309 13.18687215216638
ONEWEB-0327             
1 49196U 21083L   26066.78277515 -.00000026  00000+0 -97805-4 0  9997
2 49196  87.9242 355.6053 0001430  70.0842 290.0444 13.18683566216659
ONEWEB-0328             
1 49197U 21083M   26067.13375604  .00000388  00000+0  10286-2 0  9991
2 49197  87.9046 340.3041 0001884  75.8232 284.3106 13.13469572217633
ONEWEB-0331             
1 49198U 21083N   26067.15572359  .00000006  00000+0 -18086-4 0  9996
2 49198  87.9255 355.5118 0001729  67.0786 293.0528 13.18685988216690
ONEWEB-0333             
1 49199U 21083P   26067.12867615  .00000435  00000+0  11561-2 0  9990
2 49199  87.9028 340.3438 0001671  77.6733 282.4583 13.13470205217649
ONEWEB-0334             
1 49200U 21083Q   26067.08297347  .00000046  00000+0  80677-4 0  9991
2 49200  87.9159 294.6419 0002053 115.7589 244.3756 13.20772276223440
ONEWEB-0335             
1 49201U 21083R   26067.12359597  .00000384  00000+0  10167-2 0  9993
2 49201  87.9035 340.3384 0001661  71.5656 288.5654 13.13469509217659
ONEWEB-0336             
1 49202U 21083S   26066.79010184 -.00000214  00000+0 -62142-3 0  9997
2 49202  87.9032 340.4009 0001792  64.0924 296.0390 13.13469531217603
ONEWEB-0337             
1 49203U 21083T   26066.80013358 -.00000048  00000+0 -16561-3 0  9995
2 49203  87.9030 340.4082 0001816  74.5282 285.6048 13.13469493217604
ONEWEB-0338             
1 49204U 21083U   26067.13347414  .00000120  00000+0  26351-3 0  9993
2 49204  87.9165 294.6356 0001744  95.1152 265.0181 13.20769847223479
ONEWEB-0339             
1 49205U 21083V   26067.11344274  .00000167  00000+0  42212-3 0  9998
2 49205  87.9038 340.3341 0001862  85.7148 274.4194 13.13470492217628
ONEWEB-0340             
1 49206U 21083W   26067.06664639  .00000055  00000+0  10593-3 0  9996
2 49206  87.9254 355.5351 0001743  75.8429 284.2897 13.18685917216643
ONEWEB-0341             
1 49207U 21083X   26066.76974107  .00000069  00000+0  14163-3 0  9999
2 49207  87.9246 355.6041 0002277  73.8465 286.2917 13.18686242216628
